[Satellite]
VERSION=1.1
NAME=STARLINK-1164
NICKNAME=STARLINK-1164
TLE1=1 45070U 20006AC  20058.91667824  .00142221  00000-0  10011-2 0  9999
TLE2=2 45070  52.9955  89.6447 0001307  38.5010 277.6916 15.73184846  4985
STATUS=0
